[{"OBJECT_NAME":"STARLINK-30453","OBJECT_ID":"2023-146V","EPOCH":"2026-03-09T00:00:04.000320","MEAN_MOTION":15.26718338,"ECCENTRICITY":0.00017876,"INCLINATION":42.9996,"RA_OF_ASC_NODE":314.8413,"ARG_OF_PERICENTER":279.4555,"MEAN_ANOMALY":272.4079,"EPHEMERIS_TYPE":0,"CLASSIFICATION_TYPE":"U","NORAD_CAT_ID":57910,"ELEMENT_SET_NO":999,"REV_AT_EPOCH":574,"BSTAR":0.0010803851,"MEAN_MOTION_DOT":0.00028815,"MEAN_MOTION_DDOT":0},{"OBJECT_NAME":"TITAN 3C TRANSTAGE DEB","OBJECT_ID":"1965-082PT","EPOCH":"2026-03-09T13:23:41.116128","MEAN_MOTION":15.28908269,"ECCENTRICITY":0.00104371,"INCLINATION":32.0266,"RA_OF_ASC_NODE":255.1391,"ARG_OF_PERICENTER":172.8339,"MEAN_ANOMALY":187.2474,"EPHEMERIS_TYPE":0,"CLASSIFICATION_TYPE":"U","NORAD_CAT_ID":3462,"ELEMENT_SET_NO":999,"REV_AT_EPOCH":24824,"BSTAR":0.0004444037,"MEAN_MOTION_DOT":0.00012939,"MEAN_MOTION_DDOT":0}]
